ONEWEB-0208             
1 48243U 21031AK  25132.39982158  .00000128  00000+0  31112-3 0  9997
2 48243  87.9068   9.4278 0001776  89.5835 270.5499 13.14503747195657
ONEWEB-0200             
1 48244U 21031AL  25132.36335237 -.00000028  00000+0 -10920-3 0  9990
2 48244  87.9067   9.4276 0001825  85.9625 274.1713 13.14502345195581
ONEWEB-0217             
1 48245U 21031AM  25132.37922209 -.00000175  00000+0 -50735-3 0  9994
2 48245  87.9066   9.4090 0001725  91.6289 268.5038 13.14502897195538
ONEWEB-0211             
1 48767U 21045A   25132.46931097  .00000059  00000+0  12299-3 0  9995
2 48767  87.9053 339.0254 0001493  92.9857 267.1445 13.16078260192868
ONEWEB-0223             
1 48768U 21045B   25132.06691630 -.00000053  00000+0 -17560-3 0  9990
2 48768  87.9058 339.1377 0001298  91.3135 268.8144 13.15548380192808
ONEWEB-0230             
1 48769U 21045C   25132.11443863  .00000062  00000+0  13127-3 0  9993
2 48769  87.9042 339.1775 0001799  82.5649 277.5686 13.15550035193047
ONEWEB-0237             
1 48770U 21045D   25132.10336367  .00000199  00000+0  49462-3 0  9996
2 48770  87.9064 339.1480 0001419  87.5365 272.5928 13.15547881192784
ONEWEB-0235             
1 48771U 21045E   25132.07800673  .00000038  00000+0  67258-4 0  9995
2 48771  87.9054 339.1364 0001180  85.3791 274.7474 13.15548200192763
ONEWEB-0242             
1 48772U 21045F   25131.84350095 -.00000059  00000+0 -19116-3 0  9992
2 48772  87.9054 339.1687 0001577  81.6627 278.4683 13.15547789191650
ONEWEB-0241             
1 48773U 21045G   25131.83082506 -.00000091  00000+0 -27626-3 0  9992
2 48773  87.9038 339.2369 0001485 100.4256 259.7042 13.15547938191564
ONEWEB-0243             
1 48774U 21045H   25132.54702460  .00000049  00000+0  96056-4 0  9995
2 48774  87.9063 339.0686 0001281  83.8623 276.2654 13.15549059192817
ONEWEB-0222             
1 48775U 21045J   25131.84587797 -.00000042  00000+0 -14560-3 0  9996
2 48775  87.9049 339.1745 0001642  91.0586 269.0733 13.15548017191639
ONEWEB-0244             
1 48776U 21045K   25131.87202671  .00000177  00000+0  43676-3 0  9992
2 48776  87.9053 339.1486 0001611  80.8955 279.2358 13.15549601192209
ONEWEB-0247             
1 48777U 21045L   25131.86884708  .00000175  00000+0  43071-3 0  9996
2 48777  87.9061 339.2159 0000770  80.0727 280.0490 13.15549409191641
ONEWEB-0245             
1 48778U 21045M   25131.86409400  .00000221  00000+0  55332-3 0  9994
2 48778  87.9054 339.1855 0001687  94.3652 265.7671 13.15549543191616
ONEWEB-0229             
1 48779U 21045N   25132.46780472  .00000012  00000+0 -12251-5 0  9997
2 48779  87.9054 339.0632 0001628  83.0608 277.0708 13.15548014192856
ONEWEB-0228             
1 48780U 21045P   25131.81669926 -.00000020  00000+0 -85929-4 0  9998
2 48780  87.9056 339.1689 0001583  86.1704 273.9607 13.15549791191556
ONEWEB-0232             
1 48781U 21045Q   25132.55179049  .00000150  00000+0  36373-3 0  9993
2 48781  87.9047 339.0206 0001706  86.4007 273.7319 13.15549315193098
ONEWEB-0231             
1 48782U 21045R   25131.61691408  .00000028  00000+0  39591-4 0  9998
2 48782  87.9042 339.2642 0001475  85.6294 274.5005 13.15547633191542
ONEWEB-0234             
1 48783U 21045S   25132.09308303 -.00002191  00000+0 -58568-2 0  9999
2 48783  87.9050 339.1232 0003205 100.0931 260.0561 13.15531341192872
ONEWEB-0238             
1 48784U 21045T   25132.50345941  .00000029  00000+0  43256-4 0  9991
2 48784  87.9045 339.0574 0001915  90.2193 269.9157 13.15548037192825
ONEWEB-0240             
1 48785U 21045U   25131.82844376 -.00000105  00000+0 -31390-3 0  9994
2 48785  87.9054 339.1595 0001533  97.5795 262.5510 13.15548634191637
ONEWEB-0246             
1 48786U 21045V   25132.50741626  .00000006  00000+0 -17310-4 0  9991
2 48786  87.9057 339.0342 0001639  83.0324 277.0993 13.15548922192711
ONEWEB-0210             
1 48787U 21045W   25132.10177078  .00000217  00000+0  54109-3 0  9991
2 48787  87.9055 339.1154 0001131  69.9546 290.1706 13.15550012192719
ONEWEB-0214             
1 48788U 21045X   25131.80705238  .00000127  00000+0  30212-3 0  9992
2 48788  87.9056 339.1632 0001466  72.7689 287.3602 13.15549270191517
ONEWEB-0221             
1 48789U 21045Y   25132.11760937  .00000020  00000+0  18018-4 0  9998
2 48789  87.9059 339.1285 0001621  93.5188 266.6128 13.15546771192789
ONEWEB-0213             
1 48790U 21045Z   25131.80229836  .00000153  00000+0  37351-3 0  9990
2 48790  87.9059 339.1991 0001441  85.1901 274.9394 13.15549562191669
ONEWEB-0212             
1 48791U 21045AA  25132.08357134  .00000305  00000+0  77706-3 0  9992
2 48791  87.9049 339.1298 0001840  88.0250 272.1091 13.15544616192830
ONEWEB-0227             
1 48792U 21045AB  25132.08275405  .00000140  00000+0  33746-3 0  9996
2 48792  87.9054 339.1445 0001614  89.4598 270.6717 13.15549565192779
ONEWEB-0226             
1 48793U 21045AC  25131.84825643  .00000001  00000+0 -31503-4 0  9992
2 48793  87.9054 339.1954 0001426  80.1873 279.9418 13.15548463191584
ONEWEB-0224             
1 48794U 21045AD  25132.49632232  .00000129  00000+0  30763-3 0  9991
2 48794  87.9062 339.1016 0001877 118.3843 241.7477 13.15549342192719
ONEWEB-0233             
1 48795U 21045AE  25131.81641649  .00000056  00000+0  11449-3 0  9998
2 48795  87.9061 339.2456 0001418  93.8953 266.2339 13.15549243191525
ONEWEB-0190             
1 48796U 21045AF  25131.80388116  .00000149  00000+0  36083-3 0  9999
2 48796  87.9063 339.2119 0000914  91.6180 268.5055 13.15549707191594
ONEWEB-0236             
1 48797U 21045AG  25132.50583352  .00000016  00000+0  85473-5 0  9999
2 48797  87.9066 339.0784 0001684  90.4283 269.7040 13.15547788192696
ONEWEB-0248             
1 48798U 21045AH  25132.06216399 -.00000038  00000+0 -13588-3 0  9997
2 48798  87.9052 339.1283 0001376 109.6282 250.4997 13.15548752192798
ONEWEB-0225             
1 48799U 21045AJ  25132.08434710  .00000059  00000+0  12255-3 0  9990
2 48799  87.9058 339.1517 0001082  92.4097 267.7157 13.15548392192825
ONEWEB-0215             
1 48800U 21045AK  25132.58664457 -.00000064  00000+0 -20280-3 0  9996
2 48800  87.9053 339.0071 0001163 105.2185 254.9074 13.15547669192741
ONEWEB-0216             
1 48801U 21045AL  25131.83556860 -.00000046  00000+0 -15509-3 0  9990
2 48801  87.9054 339.2016 0001692  79.5328 280.5992 13.15549439191530
ONEWEB-0239             
1 48802U 21045AM  25131.84033119 -.00000047  00000+0 -15805-3 0  9999
2 48802  87.9064 339.2053 0001309 115.7167 244.4099 13.15548840191578
ONEWEB-0249             
1 48967U 21060A   25132.47210574  .00000043  00000+0  77667-4 0  9999
2 48967  87.9017 308.6553 0001790  95.8692 264.2643 13.16592566188170
ONEWEB-0250             
1 48968U 21060B   25132.49396727  .00000098  00000+0  19327-3 0  9995
2 48968  87.9015 307.7187 0002212 120.5350 239.6004 13.25806013188418
ONEWEB-0252             
1 48970U 21060D   25132.50379426  .00000013  00000+0  46783-6 0  9993
2 48970  87.9018 308.6420 0001751  80.3886 279.7442 13.16592920188227
ONEWEB-0253             
1 48971U 21060E   25132.18872544  .00000006  00000+0 -18932-4 0  9993
2 48971  87.9014 308.7103 0001546  94.3092 265.8215 13.16593040188104
ONEWEB-0254             
1 48972U 21060F   25132.50221448  .00000023  00000+0  25347-4 0  9997
2 48972  87.9017 308.6311 0001542 106.3024 253.8276 13.16593910188147
ONEWEB-0255             
1 48973U 21060G   25132.00822708  .00000092  00000+0  20733-3 0  9998
2 48973  87.9016 308.7632 0001557 100.1478 259.9828 13.16591828188163
ONEWEB-0256             
1 48974U 21060H   25132.18636070 -.00000019  00000+0 -82746-4 0  9997
2 48974  87.9011 308.7406 0001788  86.7266 273.4070 13.16594057188154
ONEWEB-0257             
1 48975U 21060J   25132.52279683  .00000001  00000+0 -29787-4 0  9995
2 48975  87.9015 308.6353 0001545  92.5055 267.6253 13.16593259188152
ONEWEB-0258             
1 48976U 21060K   25132.52438057 -.00000001  00000+0 -35603-4 0  9993
2 48976  87.9010 308.6622 0001811  94.9386 265.1952 13.16593144188158
ONEWEB-0259             
1 48977U 21060L   25132.51804645 -.00000041  00000+0 -14191-3 0  9995
2 48977  87.9012 308.6475 0001663  97.4147 262.7173 13.16593745188194
ONEWEB-0260             
1 48978U 21060M   25132.20535672  .00000018  00000+0  13902-4 0  9995
2 48978  87.9010 308.7383 0001688  74.5182 285.6135 13.16593507188125
ONEWEB-0261             
1 48979U 21060N   25132.47924460  .00000123  00000+0  28703-3 0  9993
2 48979  87.9011 308.6844 0001296  93.8066 266.3213 13.16596395188231
ONEWEB-0262             
1 48980U 21060P   25132.00348664  .00000041  00000+0  73089-4 0  9997
2 48980  87.9015 308.7378 0001703 105.0119 255.1200 13.16594396188138
ONEWEB-0263             
1 48981U 21060Q   25132.18714383  .00000081  00000+0  17756-3 0  9994
2 48981  87.9018 308.7272 0001390 100.8976 259.2311 13.16595478188120
ONEWEB-0264             
1 48982U 21060R   25131.99636008 -.00000008  00000+0 -55108-4 0  9995
2 48982  87.9010 308.7718 0001636  93.2128 266.9190 13.16595560188093
ONEWEB-0266             
1 48984U 21060T   25131.94173247  .00000109  00000+0  25241-3 0  9997
2 48984  87.9015 308.7545 0001917  96.9174 263.2175 13.16593840186787
ONEWEB-0267             
1 48985U 21060U   25131.87682086  .00000041  00000+0  74094-4 0  9992
2 48985  87.9016 308.7696 0001469  91.8598 268.2702 13.16594550186782
ONEWEB-0268             
1 48986U 21060V   25132.52912511  .00000045  00000+0  84811-4 0  9997
2 48986  87.9013 308.6462 0001703  88.6535 271.4791 13.16593335188423
ONEWEB-0269             
1 48987U 21060W   25132.51012636  .00000021  00000+0  21986-4 0  9994
2 48987  87.9013 308.6845 0001821  90.7731 269.3609 13.16593079188207
ONEWEB-0270             
1 48988U 21060X   25131.99558246 -.00000070  00000+0 -21798-3 0  9994
2 48988  87.9014 308.7567 0001319 105.9852 254.1424 13.16590002188183
